STARLINK-30899          
1 58420U 23180U   25362.20648653  .00001506  00000+0  12651-3 0  9994
2 58420  43.0052  84.3200 0001483 277.6989  82.3685 15.02540374116726
STARLINK-30902          
1 58421U 23180V   25362.25299306  .00000214  00000+0  30892-4 0  9990
2 58421  43.0031  83.8093 0001170 271.5195  88.5514 15.02539064116737
STARLINK-30912          
1 58422U 23180W   25362.26095321  .00001437  00000+0  61741-4 0  9998
2 58422  43.0071 313.6861 0002524 244.4442 115.6149 15.27583691118377
STARLINK-30900          
1 58423U 23180X   25362.28294704  .00001484  00000+0  12489-3 0  9993
2 58423  43.0045  83.9808 0001349 269.7725  90.2962 15.02540545116738
STARLINK-30908          
1 58424U 23180Y   25362.26494643 -.00000286  00000+0 -61020-5 0  9994
2 58424  43.0035  82.9502 0001550 265.6633  94.4033 15.02534904116855
STARLINK-30869          
1 58437U 23183A   25362.23009714 -.00002199  00000+0 -14771-3 0  9993
2 58437  43.0032  71.7204 0001224 289.3833  70.6877 15.02548216115968
STARLINK-30969          
1 58438U 23183B   25362.23341929  .00000486  00000+0  51086-4 0  9997
2 58438  43.0033  71.7467 0001462 275.4978  84.5697 15.02536549115961
STARLINK-30951          
1 58439U 23183C   25361.89437446  .00004207  00000+0  32620-3 0  9996
2 58439  43.0030  73.4998 0001432 278.9634  81.1046 15.02551408115918
STARLINK-30950          
1 58440U 23183D   25362.09478772  .00003384  00000+0  13240-3 0  9990
2 58440  43.0012 249.4599 0001087 278.1097  81.9632 15.27594776118085
STARLINK-30942          
1 58441U 23183E   25362.21011193  .00000734  00000+0  69415-4 0  9997
2 58441  43.0006  71.5708 0000968 250.4070 109.6668 15.02536371115967
STARLINK-30959          
1 58442U 23183F   25362.26992573 -.00009884  00000+0 -71663-3 0  9997
2 58442  43.0031  71.1620 0001467 261.5727  98.4949 15.02587089115972
STARLINK-30971          
1 58443U 23183G   25362.27991266 -.00011272  00000+0 -81951-3 0  9992
2 58443  43.0031  71.2262 0000998 251.0241 109.0493 15.02590218115970
STARLINK-30963          
1 58444U 23183H   25362.20011498  .00000302  00000+0  37401-4 0  9998
2 58444  43.0039  71.4953 0001169 274.5171  85.5538 15.02538938115969
STARLINK-30961          
1 58445U 23183J   25362.19678895  .00000291  00000+0  36647-4 0  9995
2 58445  43.0025  71.4680 0001378 274.2205  85.8479 15.02535426115965
STARLINK-30975          
1 58446U 23183K   25362.24451735  .00000948  00000+0  85264-4 0  9992
2 58446  43.0032  71.8121 0001275 274.7000  85.3696 15.02534830115988
STARLINK-30976          
1 58447U 23183L   25362.25328033  .00001210  00000+0  10462-3 0  9998
2 58447  43.0041  71.0628 0001520 263.5004  96.5665 15.02543518115978
