[{"OBJECT_NAME":"STARLINK-30899","OBJECT_ID":"2023-180U","EPOCH":"2025-12-28T04:57:20.436192","MEAN_MOTION":15.02540374,"ECCENTRICITY":0.00014834,"INCLINATION":43.0052,"RA_OF_ASC_NODE":84.32,"ARG_OF_PERICENTER":277.6989,"MEAN_ANOMALY":82.3685,"EPHEMERIS_TYPE":0,"CLASSIFICATION_TYPE":"U","NORAD_CAT_ID":58420,"ELEMENT_SET_NO":999,"REV_AT_EPOCH":11672,"BSTAR":0.00012651058,"MEAN_MOTION_DOT":1.506e-5,"MEAN_MOTION_DDOT":0},{"OBJECT_NAME":"STARLINK-30902","OBJECT_ID":"2023-180V","EPOCH":"2025-12-28T06:04:18.600384","MEAN_MOTION":15.02539064,"ECCENTRICITY":0.00011707,"INCLINATION":43.0031,"RA_OF_ASC_NODE":83.8093,"ARG_OF_PERICENTER":271.5195,"MEAN_ANOMALY":88.5514,"EPHEMERIS_TYPE":0,"CLASSIFICATION_TYPE":"U","NORAD_CAT_ID":58421,"ELEMENT_SET_NO":999,"REV_AT_EPOCH":11673,"BSTAR":3.0892099e-5,"MEAN_MOTION_DOT":2.14e-6,"MEAN_MOTION_DDOT":0},{"OBJECT_NAME":"STARLINK-30912","OBJECT_ID":"2023-180W","EPOCH":"2025-12-28T06:15:46.357344","MEAN_MOTION":15.27583691,"ECCENTRICITY":0.00025243,"INCLINATION":43.0071,"RA_OF_ASC_NODE":313.6861,"ARG_OF_PERICENTER":244.4442,"MEAN_ANOMALY":115.6149,"EPHEMERIS_TYPE":0,"CLASSIFICATION_TYPE":"U","NORAD_CAT_ID":58422,"ELEMENT_SET_NO":999,"REV_AT_EPOCH":11837,"BSTAR":6.1741027e-5,"MEAN_MOTION_DOT":1.437e-5,"MEAN_MOTION_DDOT":0},{"OBJECT_NAME":"STARLINK-30900","OBJECT_ID":"2023-180X","EPOCH":"2025-12-28T06:47:26.624256","MEAN_MOTION":15.02540545,"ECCENTRICITY":0.00013496,"INCLINATION":43.0045,"RA_OF_ASC_NODE":83.9808,"ARG_OF_PERICENTER":269.7725,"MEAN_ANOMALY":90.2962,"EPHEMERIS_TYPE":0,"CLASSIFICATION_TYPE":"U","NORAD_CAT_ID":58423,"ELEMENT_SET_NO":999,"REV_AT_EPOCH":11673,"BSTAR":0.00012488702,"MEAN_MOTION_DOT":1.484e-5,"MEAN_MOTION_DDOT":0},{"OBJECT_NAME":"STARLINK-30908","OBJECT_ID":"2023-180Y","EPOCH":"2025-12-28T06:21:31.371552","MEAN_MOTION":15.02534904,"ECCENTRICITY":0.000155,"INCLINATION":43.0035,"RA_OF_ASC_NODE":82.9502,"ARG_OF_PERICENTER":265.6633,"MEAN_ANOMALY":94.4033,"EPHEMERIS_TYPE":0,"CLASSIFICATION_TYPE":"U","NORAD_CAT_ID":58424,"ELEMENT_SET_NO":999,"REV_AT_EPOCH":11685,"BSTAR":-6.102035e-6,"MEAN_MOTION_DOT":-2.86e-6,"MEAN_MOTION_DDOT":0},{"OBJECT_NAME":"STARLINK-30869","OBJECT_ID":"2023-183A","EPOCH":"2025-12-28T05:31:20.392896","MEAN_MOTION":15.02548216,"ECCENTRICITY":0.0001224,"INCLINATION":43.0032,"RA_OF_ASC_NODE":71.7204,"ARG_OF_PERICENTER":289.3833,"MEAN_ANOMALY":70.6877,"EPHEMERIS_TYPE":0,"CLASSIFICATION_TYPE":"U","NORAD_CAT_ID":58437,"ELEMENT_SET_NO":999,"REV_AT_EPOCH":11596,"BSTAR":-0.00014770756,"MEAN_MOTION_DOT":-2.199e-5,"MEAN_MOTION_DDOT":0},{"OBJECT_NAME":"STARLINK-30969","OBJECT_ID":"2023-183B","EPOCH":"2025-12-28T05:36:07.426656","MEAN_MOTION":15.02536549,"ECCENTRICITY":0.00014625,"INCLINATION":43.0033,"RA_OF_ASC_NODE":71.7467,"ARG_OF_PERICENTER":275.4978,"MEAN_ANOMALY":84.5697,"EPHEMERIS_TYPE":0,"CLASSIFICATION_TYPE":"U","NORAD_CAT_ID":58438,"ELEMENT_SET_NO":999,"REV_AT_EPOCH":11596,"BSTAR":5.1085707e-5,"MEAN_MOTION_DOT":4.86e-6,"MEAN_MOTION_DDOT":0},{"OBJECT_NAME":"STARLINK-30951","OBJECT_ID":"2023-183C","EPOCH":"2025-12-27T21:27:53.953344","MEAN_MOTION":15.02551408,"ECCENTRICITY":0.0001432,"INCLINATION":43.003,"RA_OF_ASC_NODE":73.4998,"ARG_OF_PERICENTER":278.9634,"MEAN_ANOMALY":81.1046,"EPHEMERIS_TYPE":0,"CLASSIFICATION_TYPE":"U","NORAD_CAT_ID":58439,"ELEMENT_SET_NO":999,"REV_AT_EPOCH":11591,"BSTAR":0.0003262,"MEAN_MOTION_DOT":4.207e-5,"MEAN_MOTION_DDOT":0},{"OBJECT_NAME":"STARLINK-30950","OBJECT_ID":"2023-183D","EPOCH":"2025-12-28T02:16:29.659008","MEAN_MOTION":15.27594776,"ECCENTRICITY":0.00010876,"INCLINATION":43.0012,"RA_OF_ASC_NODE":249.4599,"ARG_OF_PERICENTER":278.1097,"MEAN_ANOMALY":81.9632,"EPHEMERIS_TYPE":0,"CLASSIFICATION_TYPE":"U","NORAD_CAT_ID":58440,"ELEMENT_SET_NO":999,"REV_AT_EPOCH":11808,"BSTAR":0.00013239528,"MEAN_MOTION_DOT":3.384e-5,"MEAN_MOTION_DDOT":0},{"OBJECT_NAME":"STARLINK-30942","OBJECT_ID":"2023-183E","EPOCH":"2025-12-28T05:02:33.670752","MEAN_MOTION":15.02536371,"ECCENTRICITY":9.68e-5,"INCLINATION":43.0006,"RA_OF_ASC_NODE":71.5708,"ARG_OF_PERICENTER":250.407,"MEAN_ANOMALY":109.6668,"EPHEMERIS_TYPE":0,"CLASSIFICATION_TYPE":"U","NORAD_CAT_ID":58441,"ELEMENT_SET_NO":999,"REV_AT_EPOCH":11596,"BSTAR":6.9415297e-5,"MEAN_MOTION_DOT":7.34e-6,"MEAN_MOTION_DDOT":0},{"OBJECT_NAME":"STARLINK-30959","OBJECT_ID":"2023-183F","EPOCH":"2025-12-28T06:28:41.583072","MEAN_MOTION":15.02587089,"ECCENTRICITY":0.00014679,"INCLINATION":43.0031,"RA_OF_ASC_NODE":71.162,"ARG_OF_PERICENTER":261.5727,"MEAN_ANOMALY":98.4949,"EPHEMERIS_TYPE":0,"CLASSIFICATION_TYPE":"U","NORAD_CAT_ID":58442,"ELEMENT_SET_NO":999,"REV_AT_EPOCH":11597,"BSTAR":-0.00071662532,"MEAN_MOTION_DOT":-9.884e-5,"MEAN_MOTION_DDOT":0},{"OBJECT_NAME":"STARLINK-30971","OBJECT_ID":"2023-183G","EPOCH":"2025-12-28T06:43:04.453824","MEAN_MOTION":15.02590218,"ECCENTRICITY":9.98e-5,"INCLINATION":43.0031,"RA_OF_ASC_NODE":71.2262,"ARG_OF_PERICENTER":251.0241,"MEAN_ANOMALY":109.0493,"EPHEMERIS_TYPE":0,"CLASSIFICATION_TYPE":"U","NORAD_CAT_ID":58443,"ELEMENT_SET_NO":999,"REV_AT_EPOCH":11597,"BSTAR":-0.00081950862,"MEAN_MOTION_DOT":-0.00011272,"MEAN_MOTION_DDOT":0},{"OBJECT_NAME":"STARLINK-30963","OBJECT_ID":"2023-183H","EPOCH":"2025-12-28T04:48:09.934272","MEAN_MOTION":15.02538938,"ECCENTRICITY":0.00011695,"INCLINATION":43.0039,"RA_OF_ASC_NODE":71.4953,"ARG_OF_PERICENTER":274.5171,"MEAN_ANOMALY":85.5538,"EPHEMERIS_TYPE":0,"CLASSIFICATION_TYPE":"U","NORAD_CAT_ID":58444,"ELEMENT_SET_NO":999,"REV_AT_EPOCH":11596,"BSTAR":3.7400957e-5,"MEAN_MOTION_DOT":3.02e-6,"MEAN_MOTION_DDOT":0},{"OBJECT_NAME":"STARLINK-30961","OBJECT_ID":"2023-183J","EPOCH":"2025-12-28T04:43:22.565280","MEAN_MOTION":15.02535426,"ECCENTRICITY":0.00013781,"INCLINATION":43.0025,"RA_OF_ASC_NODE":71.468,"ARG_OF_PERICENTER":274.2205,"MEAN_ANOMALY":85.8479,"EPHEMERIS_TYPE":0,"CLASSIFICATION_TYPE":"U","NORAD_CAT_ID":58445,"ELEMENT_SET_NO":999,"REV_AT_EPOCH":11596,"BSTAR":3.6646779e-5,"MEAN_MOTION_DOT":2.91e-6,"MEAN_MOTION_DDOT":0},{"OBJECT_NAME":"STARLINK-30975","OBJECT_ID":"2023-183K","EPOCH":"2025-12-28T05:52:06.299040","MEAN_MOTION":15.0253483,"ECCENTRICITY":0.00012754,"INCLINATION":43.0032,"RA_OF_ASC_NODE":71.8121,"ARG_OF_PERICENTER":274.7,"MEAN_ANOMALY":85.3696,"EPHEMERIS_TYPE":0,"CLASSIFICATION_TYPE":"U","NORAD_CAT_ID":58446,"ELEMENT_SET_NO":999,"REV_AT_EPOCH":11598,"BSTAR":8.5264399e-5,"MEAN_MOTION_DOT":9.48e-6,"MEAN_MOTION_DDOT":0},{"OBJECT_NAME":"STARLINK-30976","OBJECT_ID":"2023-183L","EPOCH":"2025-12-28T06:04:43.420512","MEAN_MOTION":15.02543518,"ECCENTRICITY":0.00015209,"INCLINATION":43.0041,"RA_OF_ASC_NODE":71.0628,"ARG_OF_PERICENTER":263.5004,"MEAN_ANOMALY":96.5665,"EPHEMERIS_TYPE":0,"CLASSIFICATION_TYPE":"U","NORAD_CAT_ID":58447,"ELEMENT_SET_NO":999,"REV_AT_EPOCH":11597,"BSTAR":0.00010461561,"MEAN_MOTION_DOT":1.21e-5,"MEAN_MOTION_DDOT":0}]
